#cP2017 11 24  0  0  0.00000000      96 ORBIT IGS14 HLM  IGS
## 1976 432000.00000000   900.00000000 58081 0.0000000000000
+   32   G01G02G03G04G05G06G07G08G09G10G11G12G13G14G15G16G17
+        G18G19G20G21G22G23G24G25G26G27G28G29G30G31G32  0  0
+          0  0  0  0  0  0  0  0  0  0  0  0  0  0  0  0  0
+          0  0  0  0  0  0  0  0  0  0  0  0  0  0  0  0  0
+          0  0  0  0  0  0  0  0  0  0  0  0  0  0  0  0  0
++         2  2  2  0  2  2  2  2  2  2  2  2  2  2  2  2  2
++         2  2  2  2  2  2  2  2  2  2  2  2  2  2  2  0  0
++         0  0  0  0  0  0  0  0  0  0  0  0  0  0  0  0  0
++         0  0  0  0  0  0  0  0  0  0  0  0  0  0  0  0  0
++         0  0  0  0  0  0  0  0  0  0  0  0  0  0  0  0  0
%c G  cc GPS ccc cccc cccc cccc cccc ccccc ccccc ccccc ccccc
%c cc cc ccc ccc cccc cccc cccc cccc ccccc ccccc ccccc ccccc
%f  1.2500000  1.025000000  0.00000000000  0.000000000000000
%f  0.0000000  0.000000000  0.00000000000  0.000000000000000
%i    0    0    0    0      0      0      0      0         0
%i    0    0    0    0      0      0      0      0         0
/* RAPID ORBIT COMBINATION FROM WEIGHTED AVERAGE OF:        
/* cod emr esa gfz jpl ngs sio usn whu                      
/* REFERENCED TO IGS TIME (IGST) AND TO WEIGHTED MEAN POLE: 
/* PCV:IGS14_1973 OL/AL:FES2004  NONE     Y  ORB:CMB CLK:CMB
*  2017 11 24 15  0  0.00000000
PG01   3420.541262  14699.514453 -21987.970274    -12.425435  2  4  2  83       
PG02  18661.450856 -14861.742429  11879.911759    272.625954  8  8  6 101       
PG03  11332.067178  21750.166791 -10272.103208    -37.320500  5  5  5  56       
PG04 -13119.516720  17923.558400  13966.515108 999999.999999
PG05   7449.302664 -14021.588404  21165.226940    -21.750068  7  7  4  93       
PG06  25541.616819  -7272.528342    739.628462    411.080632  4  5  5  96       
PG07  19053.083468   7803.257547  17220.335363    275.145243  5  6  7  89       
PG08  -5321.891342  25870.288175  -2092.837353    -81.765902  4  2  5  95       
PG09  10439.424056  14691.047724  19474.188062    475.454785  6  3  3  45       
PG10 -21065.994962  -6381.871424 -14939.617411    117.114518  6  5  5  75       
PG11   -191.230177  19167.543156 -18997.954311   -727.835408  4  5  6  94       
PG12  -7617.106580 -21957.248154 -13203.156457    363.401543  8  7  6  72       
PG13  12250.651772 -23253.421518   3777.891753    -94.241388  7  7  5 106       
PG14 -16619.055769  11673.824173 -16750.655348    -89.238643  4  5  5  95       
PG15   1852.409315 -25984.493782  -4166.894298   -357.267301  6  9  8 109       
PG16  -7321.213501  13363.775463  21562.313754     36.118313  8  9  4  86       
PG17  15484.353518  -1979.969983 -21087.730849   -142.427988  8  4  6  89       
PG18 -21428.958474 -15007.951571  -4493.938805    633.001356  6  6  8  94       
PG19  16929.020573 -10425.728343 -17997.527998   -473.797702  9  6  7 102       
PG20  -9551.395682 -20823.286012  13317.596961    493.694936  4  5  8  47       
PG21 -20686.049272  -6066.182307  16345.143627   -459.100424  6  6  6  54       
PG22   4970.146166  20625.581293 -15724.880379   -199.942264  5  4  5  98       
PG23   3643.533042  22855.408549  12896.281685   -218.790555  5  6  5  68       
PG24   -486.638279 -15961.911053 -21288.641219    -42.605540  7  7  5 119       
PG25 -17500.357987 -20034.242075  -2253.635208   -494.860717  4  2  6 107       
PG26 -15858.892258   4908.338398  20760.222025   -350.364050  3  6  2 119       
PG27 -12364.096032  21384.848653   9388.904235    350.580146  5  3  3  92       
PG28  20141.430223  11547.845681 -12241.895514    665.294254  4  3  5  81       
PG29  -5838.316531 -19092.141619  17513.340549    534.052792  6  6  5  74       
PG30  25003.989367   1589.046709   9037.699751    125.691786  7  5  8  70       
PG31 -25520.662583   7705.964199   2663.026850    159.965128  4  8  7  81       
PG32 -16174.793606   4590.543438 -20522.480752   -525.773740  6  6  6  95       
*  2017 11 24 15 15  0.00000000
PG01   1038.285680  15361.786988 -21749.949702    -12.427633  3  4     69       
PG02  19842.095704 -15000.902568   9398.929203    272.617198  8  8  6  95       
PG03  10233.967725  21003.977235 -12692.722371    -37.315370  5  5  6  66       
PG04 -13096.096330  16143.604707  16032.408211 999999.999999
PG05   9297.073696 -12385.993065  21469.486757    -21.749184  7  7  4  91       
PG06  25529.605210  -7027.835214  -2130.700314    411.081985  4  5  5  87       
PG07  17145.140600   8450.262434  18823.950942    275.140659  5  5  6  92       
PG08  -5576.657065  25895.262737    783.290787    -81.767569  3  1  5  81       
PG09   9825.035815  16763.239733  18071.604942    475.458903  6  3  2  67       
PG10 -22086.471284  -7607.005816 -12746.291546    117.121145  5  6  5  71       
PG11  -1854.507131  20314.430665 -17637.614550   -727.837038  5  5  5 100       
PG12  -6437.885032 -20868.517469 -15420.018852    363.400058  8  7  6  96       
PG13  12252.865261 -22608.387402   6567.561588    -94.241811  6  7  5 113       
PG14 -16137.601809   9656.783349 -18411.431752    -89.239131  3  5  3 100       
PG15   2267.705544 -26223.498500  -1378.351625   -357.267475  6  9  7 104       
PG16  -9036.368255  11518.534817  22005.401487     36.118187  8  9  4  85       
PG17  14821.485940    454.398086 -21648.127345   -142.425850  7  4  6  86       
PG18 -21526.456809 -15541.882270  -1749.767393    633.001518  6  7  8  60       
PG19  16335.763041  -8426.034143 -19532.153250   -473.795688  9  5  6  94       
PG20  -8069.075386 -20008.199390  15363.719157    493.696344  3  5  7  81       
PG21 -19002.766972  -6823.309073  18078.181751   -459.097415  5  6  6  75       
PG22   3339.473044  19532.592206 -17435.385577   -199.953829  4  5  4  82       
PG23   3079.642803  24081.836686  10508.698847   -218.790812  5  6  5  82       
PG24   1802.915896 -16651.819155 -20653.222844    -42.607114  7  7  5 118       
PG25 -17079.340978 -19897.094454  -5085.291795   -494.866364  3  2  6  96       
PG26 -17501.449508   3274.442571  19746.939010   -350.351262  3  6  2  96       
PG27 -12276.705448  20139.379828  11922.637272    350.583183  6  3  4  94       
PG28  20905.066971  12665.382344  -9725.815465    665.297307  5  3  5  72       
PG29  -5167.476359 -20865.195589  15599.188202    534.048323  6  6  5  63       
PG30  23920.216044   2102.926386  11514.263047    125.689351  7  5  8  22       
PG31 -25703.846522   7536.725344   -173.037167    159.962798  3  8  7  93       
PG32 -15702.203091   2238.103913 -21271.995197   -525.776224  5  6  5  71       
*  2017 11 24 15 30  0.00000000
PG01  -1262.784253  16135.904400 -21141.371794    -12.429863  3  4     70       
PG02  20752.687131 -15084.460094   6756.788029    272.608338  8  9  7  79       
PG03   8898.795366  20147.346258 -14895.621237    -37.310196  4  6  6  84       
PG04 -13143.588089  14146.622688  17812.606964 999999.999999
PG05  11232.406552 -10836.803688  21400.650985    -21.747809  7  7  4  85       
PG06  25227.199169  -6671.666615  -4964.374923    411.083330  5  5  5  94       
PG07  15119.435532   9250.851992  20113.189734    275.136008  5  5  6 101       
PG08  -5775.629854  25612.195304   3645.852735    -81.768240  4  1  5  73       
PG09   9345.971577  18689.785144  16357.166986    475.463029  6  4  2  79       
PG10 -22969.967545  -8609.408024 -10334.845177    117.127763  5  6  6  67       
PG11  -3347.058030  21421.666465 -15987.251966   -727.838403  5  5  5  78       
PG12  -5028.376076 -19687.096533 -17376.651823    363.398293  9  8  6  73       
PG13  12200.447766 -21666.864575   9243.932893    -94.241976  6  7  4 114       
PG14 -15717.358338   7451.034663 -19746.592546    -89.240078  3  5  2  84       
PG15   2640.909308 -26164.747765   1434.443582   -357.267968  6  9  7 114       
PG16 -10869.656199   9754.677835  22064.274390     36.117838  7  9  4  54       
PG17  14282.377806   2961.607894 -21822.265860   -142.423405  7  3  4  81       
PG18 -21404.759511 -15877.915894   1024.415616    633.001812  6  7  8  43       
PG19  15814.006451  -6248.319550 -20740.356774   -473.793835  9  5  5  81       
PG20  -6370.680276 -19140.574281  17143.199757    493.697028  3  4  6  75       
PG21 -17202.217088  -7728.113822  19518.363835   -459.094035  4  6  5  66       
PG22   1518.779499  18407.572116 -18840.177829   -199.965550  4  6  3  89       
PG23   2620.162758  25059.165751   7938.120794   -218.790794  6  7  5  90       
PG24   3973.381206 -17420.607688 -19663.665472    -42.608352  6  7  5 117       
PG25 -16412.548886 -19579.914742  -7830.899884   -494.871983  3  2  6  87       
PG26 -19122.197849   1812.871509  18394.952520   -350.338498  3  6  3 110       
PG27 -12209.254848  18618.139981  14248.107053    350.586356  6  4  5 108       
PG28  21517.673974  13522.390471  -7037.414439    665.299879  5  4  5  77       
PG29  -4650.285720 -22446.547219  13416.558770    534.043998  6  6  4  61       
PG30  22606.552974   2747.466892  13794.214532    125.686900  6  4  8  48       
PG31 -25593.893167   7278.105454  -3006.189652    159.960488  3  8  7  91       
PG32 -15340.591633   -198.209161 -21654.415400   -525.778712  6  6  5  73       
EOF
